LEGION 3                
1 60452U 24146A   24235.80721893  .00037181  00000+0  94352-3 0  9993
2 60452  44.9943   7.7918 0004334  29.2630 330.8499 15.39097762  1118
LEGION 4                
1 60453U 24146B   24235.86734628  .00001435  00000+0  34750-3 0  9999
2 60453  45.0405   9.3056 0004088 195.6595 164.4135 14.57352816  1064
2024-147A               
1 60454U 24147A   24235.38889625  .00011252  00000+0  35479-3 0  9993
2 60454  37.3803 260.7665 0008896  16.3663 343.7382 15.32318702   959
2024-147B               
1 60455U 24147B   24231.54182212  .00036613  00000+0  10889-2 0  9991
2 60455  37.3826 284.5293 0013960   5.0400 355.0498 15.33763443    16
2024-147C               
1 60456U 24147C   24236.18444669  .00054863  00000+0  59968-3 0  9993
2 60456  36.9272 252.6579 0082886 310.4695  48.8862 15.57997952  1093
2024-147D               
1 60457U 24147D   24236.14915991  .00026625  00000+0  70554-3 0  9990
2 60457  37.3669 255.7449 0029086  45.2705 315.0418 15.37101644  1074
YAOGAN-43 O1A           
1 60458U 24148A   24235.78648317  .00029703  00000+0  12172-2 0  9997
2 60458  35.0022  14.7016 0005763 318.3591  41.6685 15.23326812   998
YAOGAN-43 O1B           
1 60459U 24148B   24235.72008828  .00025654  00000+0  10468-2 0  9996
2 60459  34.9989  15.1086 0005723 327.7036  32.3328 15.23495907   921
YAOGAN-43 O1C           
1 60460U 24148C   24235.71894864  .00021599  00000+0  87546-3 0  9996
2 60460  35.0047  15.0938 0006680 334.6823  25.3564 15.23743088   929
YAOGAN-43 O1D           
1 60461U 24148D   24235.71859761  .00031249  00000+0  12584-2 0  9996
2 60461  34.9986  15.0964 0007476 334.8156  25.2193 15.23892837   928
YAOGAN-43 O1E           
1 60462U 24148E   24235.71914228  .00035628  00000+0  14384-2 0  9992
2 60462  34.9969  15.1006 0006499 331.5018  28.5341 15.23789238   924
YAOGAN-43 O1F           
1 60463U 24148F   24235.71967933  .00019018  00000+0  77528-3 0  9999
2 60463  35.0016  15.1047 0005755 334.3138  25.7290 15.23575003   928
YAOGAN-43 O1G           
1 60464U 24148G   24234.80206075  .00031366  00000+0  12725-2 0  9999
2 60464  35.0041  20.8751 0005979 327.7886  32.2463 15.23653276   784
YAOGAN-43 O1H           
1 60465U 24148H   24235.78415155  .00027996  00000+0  11291-2 0  9990
2 60465  35.0017  14.6828 0007371 333.6620  26.3719 15.23862553   939
YAOGAN-43 O1J           
1 60466U 24148J   24235.78386908  .00026525  00000+0  10685-2 0  9997
2 60466  35.0044  14.6794 0007171 338.8234  21.2184 15.23913306   931
CZ-4B R/B               
1 60467U 24148K   24235.79711104  .00097639  00000+0  11173-2 0  9996
2 60467  35.0075  12.8456 0123013  58.6404 302.6291 15.52062328   959
CZ-6A DEB               
1 60620U 24140V   24235.94335024  .00001179  00000+0  26598-3 0  9991
2 60620  89.0453 349.3300 0114954  13.6843 346.7435 14.51639347  2249
CZ-6A DEB               
1 60621U 24140W   24235.97154397  .00009754  00000+0  19874-2 0  9992
2 60621  89.0363 349.2893 0132605  15.0065 345.5018 14.55467825  2250
CZ-6A DEB               
1 60622U 24140X   24235.96809627  .00004181  00000+0  10049-2 0  9999
2 60622  89.0319 349.2917 0111125  22.4007 338.1996 14.49489181  2335
CZ-6A DEB               
1 60623U 24140Y   24235.95750149  .00005099  00000+0  11944-2 0  9997
2 60623  89.0371 349.3060 0114619  21.1705 339.4188 14.50461529  2229
CZ-6A DEB               
1 60624U 24140Z   24235.86317706  .00004740  00000+0  10457-2 0  9996
2 60624  89.0561 349.3693 0121104  16.2381 344.2653 14.52728859  2208
CZ-6A DEB               
1 60625U 24140AA  24235.91078581  .00018955  00000+0  62501-2 0  9998
2 60625  89.0210 349.3095 0076809  57.6638 303.2466 14.36335549  2222
CZ-6A DEB               
1 60626U 24140AB  24235.83908670  .00005804  00000+0  57850-3 0  9992
2 60626  89.0413 349.2617 0230655  17.0522 343.8283 14.73574279  2199
CZ-6A DEB               
1 60627U 24140AC  24235.83870284  .00002737  00000+0  28361-2 0  9998
2 60627  88.0623 347.0195 0546350 156.8492 205.8307 13.24498079  1987
CZ-6A DEB               
1 60628U 24140AD  24235.85809558  .00001968  00000+0  78361-3 0  9998
2 60628  88.8529 348.8309 0003453 251.6905 108.3914 14.28285233  2132
CZ-6A DEB               
1 60629U 24140AE  24236.08115283  .00059883  00000+0  38388-2 0  9993
2 60629  89.2698 349.9494 0304427  35.2519 326.8422 14.77300729  2216
CZ-6A DEB               
1 60630U 24140AF  24236.01032688  .00025579  00000+0  41463-2 0  9998
2 60630  88.2958 346.9658 0202742 304.7939  53.4338 14.58309327  2190
CZ-6A DEB               
1 60631U 24140AG  24234.21529667  .16651472 -81142-7  48897-2 0  9994
2 60631  89.2667 350.2422 0077428  36.9715 323.6884 16.19520008  2034
CZ-6A DEB               
1 60632U 24140AH  24235.75973695  .00003003  00000+0  71721-3 0  9991
2 60632  89.0677 349.4247 0113042  23.9576 336.6831 14.49582279  2128
CZ-6A DEB               
1 60633U 24140AJ  24235.85619533  .00001535  00000+0  75838-3 0  9992
2 60633  89.0417 349.4329 0058846 166.0307 194.2526 14.16040569  2093
CZ-6A DEB               
1 60634U 24140AK  24235.83254888  .00019511  00000+0  24945-2 0  9994
2 60634  89.1006 349.4657 0199617  17.7374 343.0680 14.68216444  2157
CZ-6A DEB               
1 60635U 24140AL  24235.71178925  .00001767  00000+0  11304-2 0  9998
2 60635  88.8110 348.8317 0152056 197.3436 162.2516 13.97507193  2037
CZ-6A DEB               
1 60636U 24140AM  24235.84071384  .00002761  00000+0  13389-2 0  9994
2 60636  89.0181 349.3602 0051874 172.0272 188.1754 14.17425431  2078
CZ-6A DEB               
1 60637U 24140AN  24235.82704916  .00082902  00000+0  30043-2 0  9998
2 60637  89.4517 350.5219 0300849 328.2234  30.1140 14.94807426  2164
CZ-6A DEB               
1 60638U 24140AP  24235.84461203  .00046750  00000+0  31595-2 0  9994
2 60638  89.0719 349.3406 0277640  25.4932 335.9686 14.80012022  2157
CZ-6A DEB               
1 60639U 24140AQ  24235.85758753  .00001167  00000+0  12487-2 0  9997
2 60639  88.4885 348.1337 0459067 165.7892 195.6689 13.35294869  1943
CZ-6A DEB               
1 60640U 24140AR  24235.80097094  .00203448  00000+0  46161-2 0  9990
2 60640  89.8241 351.6990 0310335   0.5262 359.6238 15.05130355  2166
CZ-6A DEB               
1 60641U 24140AS  24235.84799316  .00002343  00000+0  16076-2 0  9994
2 60641  89.6066 351.1563 0350884 136.3164 226.6352 13.73416697  1992
CZ-6A DEB               
1 60642U 24140AT  24235.78829046  .00068424  00000+0  23790-2 0  9995
2 60642  89.3884 350.3411 0356971  35.5557 326.8894 14.85728774  2115
CZ-6A DEB               
1 60643U 24140AU  24235.77545645  .00011068  00000+0  37445-2 0  9999
2 60643  88.9922 349.2354 0056725  50.2436 310.3740 14.35851846  2201
CZ-6A DEB               
1 60644U 24140AV  24235.81656888  .00022509  00000+0  43944-2 0  9990
2 60644  89.0407 349.3147 0133140   8.7941 351.5555 14.57289911  2134
CZ-6A DEB               
1 60645U 24140AW  24235.76418898  .00001955  00000+0  20064-2 0  9992
2 60645  88.7777 348.9497 0508185 157.8106 204.5912 13.30649055  1949
CZ-6A DEB               
1 60646U 24140AX  24235.82795275  .00009573  00000+0  23133-2 0  9991
2 60646  89.0286 349.2971 0103644  14.4618 345.9514 14.49791280  2103
CZ-6A DEB               
1 60647U 24140AY  24235.83449005  .00029769  00000+0  38931-2 0  9991
2 60647  89.4164 350.4541 0192465 329.3801  29.6291 14.68147999  2102
CZ-6A DEB               
1 60648U 24140AZ  24235.88237119  .00005337  00000+0  10333-2 0  9999
2 60648  89.1038 349.5063 0138511   9.0068 351.3715 14.57192758  2092
CZ-6A DEB               
1 60649U 24140BA  24235.87248084  .00001595  00000+0  35997-3 0  9998
2 60649  89.0087 349.2250 0114784  12.5952 347.8080 14.51820367  2091
CZ-6A DEB               
1 60650U 24140BB  24235.85285983  .00002175  00000+0  45946-3 0  9997
2 60650  88.9801 349.1326 0132486  21.5988 339.0736 14.53609233  2085
CZ-6A DEB               
1 60651U 24140BC  24235.82204647  .00000823  00000+0  22790-3 0  9993
2 60651  88.9044 348.9373 0078921  18.5362 341.8687 14.43914862  2069
CZ-6A DEB               
1 60652U 24140BD  24235.85482001  .00007087  00000+0  21523-2 0  9990
2 60652  88.9484 349.0765 0058342   2.8939 357.2589 14.41095943  2055
CZ-6A DEB               
1 60653U 24140BE  24235.89536979  .00005704  00000+0  21432-2 0  9992
2 60653  88.6610 348.2402 0028937 292.1935  67.6307 14.31235932  2053
CZ-6A DEB               
1 60654U 24140BF  24235.85566714  .00008512  00000+0  14238-2 0  9995
2 60654  88.9984 349.1704 0178383  29.3081 331.7993 14.59713187  2081
CZ-6A DEB               
1 60655U 24140BG  24235.80903108  .00000832  00000+0  38041-3 0  9999
2 60655  89.0223 349.3684 0040772 156.9931 203.3097 14.20181279  2011
CZ-6A DEB               
1 60656U 24140BH  24235.82475192  .00029556  00000+0  38464-2 0  9991
2 60656  89.1824 349.7368 0234611  41.2167 320.6498 14.63069665  1217
CZ-6A DEB               
1 60657U 24140BJ  24235.84497366  .00002211  00000+0  55801-3 0  9995
2 60657  88.9392 349.0259 0094043   8.5337 351.7440 14.48095733  2047
CZ-6A DEB               
1 60658U 24140BK  24235.74201259  .00004368  00000+0  15611-2 0  9998
2 60658  89.0061 349.2900 0073064  70.9729 289.9364 14.32475132  2007
CZ-6A DEB               
1 60659U 24140BL  24235.82420383  .00004215  00000+0  19960-2 0  9991
2 60659  89.0279 349.3861 0046557 171.7484 188.4482 14.18903323  1994
CZ-6A DEB               
1 60660U 24140BM  24236.02350483  .00008411  00000+0  18236-2 0  9996
2 60660  89.0220 349.2505 0154817  41.2865 319.9925 14.50817811  2052
CZ-6A DEB               
1 60661U 24140BN  24236.01842074  .00006304  00000+0  20154-2 0  9999
2 60661  88.8966 348.9055 0048086 356.6970   3.3906 14.38890238  2034
